{"type": "FeatureCollection", "features": [ {"type": "Feature", "properties": {"norad_id": 40315, "name": "COSMOS 2501 (702K)", "group": "gnss", "lat": -45.31942190316391, "lon": 46.44405280432503, "alt_km": 19090.315588768175, "timestamp": "2025-12-27T20:30:59.527362+00:00", "meta": {"OBJECT_NAME": "COSMOS 2501 (702K)", "OBJECT_ID": "2014-075A", "EPOCH": "2025-12-27T01:58:52.696704", "MEAN_MOTION": 2.13101389, "ECCENTRICITY": 0.00201, "INCLINATION": 63.616, "RA_OF_ASC_NODE": 196.3279, "ARG_OF_PERICENTER": 203.8362, "MEAN_ANOMALY": 156.1227, "EPHEMERIS_TYPE": 0, "CLASSIFICATION_TYPE": "U", "NORAD_CAT_ID": 40315, "ELEMENT_SET_NO": 999, "REV_AT_EPOCH": 8618, "BSTAR": 0, "MEAN_MOTION_DOT": 1.2e-06, "MEAN_MOTION_DDOT": 0}, "tle": {"line1": "1 40315U 14075A   25361.08255436  .00000120  00000+0  00000+0 0  9991", "line2": "2 40315  63.6160 196.3279 0020100 203.8362 156.1227  2.13101389 86186"}}, "geometry": {"type": "Point", "coordinates": [46.44405280432503, -45.31942190316391]}}, {"type": "Feature", "properties": {"norad_id": 40534, "name": "GPS BIIF-9  (PRN 26)", "group": "gnss", "lat": -33.302698247866026, "lon": 60.73542793709127, "alt_km": 20471.572023351524, "timestamp": "2025-12-27T20:30:59.527373+00:00", "meta": {"OBJECT_NAME": "GPS BIIF-9  (PRN 26)", "OBJECT_ID": "2015-013A", "EPOCH": "2025-12-26T13:11:10.214592", "MEAN_MOTION": 2.00561683, "ECCENTRICITY": 0.010755, "INCLINATION": 53.1959, "RA_OF_ASC_NODE": 211.3182, "ARG_OF_PERICENTER": 38.8079, "MEAN_ANOMALY": 322.028, "EPHEMERIS_TYPE": 0, "CLASSIFICATION_TYPE": "U", "NORAD_CAT_ID": 40534, "ELEMENT_SET_NO": 999, "REV_AT_EPOCH": 7836, "BSTAR": 0, "MEAN_MOTION_DOT": 8.8e-07, "MEAN_MOTION_DDOT": 0}, "tle": {"line1": "1 40534U 15013A   25360.54942378  .00000088  00000+0  00000+0 0  9998", "line2": "2 40534  53.1959 211.3182 0107550  38.8079 322.0280  2.00561683 78363"}}, "geometry": {"type": "Point", "coordinates": [60.73542793709127, -33.302698247866026]}}, {"type": "Feature", "properties": {"norad_id": 40544, "name": "GSAT0203 (GALILEO 7)", "group": "gnss", "lat": -37.19622201203449, "lon": -43.483446521918914, "alt_km": 23211.52260342699, "timestamp": "2025-12-27T20:30:59.527387+00:00", "meta": {"OBJECT_NAME": "GSAT0203 (GALILEO 7)", "OBJECT_ID": "2015-017A", "EPOCH": "2025-12-26T18:10:04.466496", "MEAN_MOTION": 1.70475666, "ECCENTRICITY": 0.00064599, "INCLINATION": 56.8428, "RA_OF_ASC_NODE": 346.298, "ARG_OF_PERICENTER": 275.3549, "MEAN_ANOMALY": 84.5807, "EPHEMERIS_TYPE": 0, "CLASSIFICATION_TYPE": "U", "NORAD_CAT_ID": 40544, "ELEMENT_SET_NO": 999, "REV_AT_EPOCH": 6626, "BSTAR": 0, "MEAN_MOTION_DOT": -6.1e-07, "MEAN_MOTION_DDOT": 0}, "tle": {"line1": "1 40544U 15017A   25360.75699614 -.00000061  00000+0  00000+0 0  9990", "line2": "2 40544  56.8428 346.2980 0006459 275.3549  84.5807  1.70475666 66267"}}, "geometry": {"type": "Point", "coordinates": [-43.483446521918914, -37.19622201203449]}}, {"type": "Feature", "properties": {"norad_id": 40545, "name": "GSAT0204 (GALILEO 8)", "group": "gnss", "lat": 19.182218059383295, "lon": 153.1360540898855, "alt_km": 23225.91528187335, "timestamp": "2025-12-27T20:30:59.527399+00:00", "meta": {"OBJECT_NAME": "GSAT0204 (GALILEO 8)", "OBJECT_ID": "2015-017B", "EPOCH": "2025-12-20T13:26:28.826304", "MEAN_MOTION": 1.70475697, "ECCENTRICITY": 0.0006133, "INCLINATION": 56.8522, "RA_OF_ASC_NODE": 346.4847, "ARG_OF_PERICENTER": 266.5447, "MEAN_ANOMALY": 93.3948, "EPHEMERIS_TYPE": 0, "CLASSIFICATION_TYPE": "U", "NORAD_CAT_ID": 40545, "ELEMENT_SET_NO": 999, "REV_AT_EPOCH": 2920, "BSTAR": 0, "MEAN_MOTION_DOT": -7e-07, "MEAN_MOTION_DDOT": 0}, "tle": {"line1": "1 40545U 15017B   25354.56005586 -.00000070  00000+0  00000+0 0  9992", "line2": "2 40545  56.8522 346.4847 0006133 266.5447  93.3948  1.70475697 29206"}}, "geometry": {"type": "Point", "coordinates": [153.1360540898855, 19.182218059383295]}}, {"type": "Feature", "properties": {"norad_id": 40549, "name": "BEIDOU-3S IGSO-1S (C31)", "group": "gnss", "lat": -16.41020448888179, "lon": 132.0498245513668, "alt_km": 35631.20645031728, "timestamp": "2025-12-27T20:30:59.527413+00:00", "meta": {"OBJECT_NAME": "BEIDOU-3S IGSO-1S (C31)", "OBJECT_ID": "2015-019A", "EPOCH": "2025-12-26T19:27:32.429664", "MEAN_MOTION": 1.00290016, "ECCENTRICITY": 0.00365106, "INCLINATION": 49.5251, "RA_OF_ASC_NODE": 297.5457, "ARG_OF_PERICENTER": 194.1839, "MEAN_ANOMALY": 350.566, "EPHEMERIS_TYPE": 0, "CLASSIFICATION_TYPE": "U", "NORAD_CAT_ID": 40549, "ELEMENT_SET_NO": 999, "REV_AT_EPOCH": 3934, "BSTAR": 0, "MEAN_MOTION_DOT": -1.81e-06, "MEAN_MOTION_DDOT": 0}, "tle": {"line1": "1 40549U 15019A   25360.81079201 -.00000181  00000+0  00000+0 0  9991", "line2": "2 40549  49.5251 297.5457 0036510 194.1839 350.5660  1.00290016 39342"}}, "geometry": {"type": "Point", "coordinates": [132.0498245513668, -16.41020448888179]}}, {"type": "Feature", "properties": {"norad_id": 40730, "name": "GPS BIIF-10 (PRN 08)", "group": "gnss", "lat": 50.39463794699482, "lon": 33.25091795160382, "alt_km": 20125.920427703888, "timestamp": "2025-12-27T20:30:59.527425+00:00", "meta": {"OBJECT_NAME": "GPS BIIF-10 (PRN 08)", "OBJECT_ID": "2015-033A", "EPOCH": "2025-12-26T05:05:23.462304", "MEAN_MOTION": 2.00564909, "ECCENTRICITY": 0.0111756, "INCLINATION": 54.1189, "RA_OF_ASC_NODE": 274.2184, "ARG_OF_PERICENTER": 27.1685, "MEAN_ANOMALY": 333.4602, "EPHEMERIS_TYPE": 0, "CLASSIFICATION_TYPE": "U", "NORAD_CAT_ID": 40730, "ELEMENT_SET_NO": 999, "REV_AT_EPOCH": 7652, "BSTAR": 0, "MEAN_MOTION_DOT": -2e-07, "MEAN_MOTION_DDOT": 0}, "tle": {"line1": "1 40730U 15033A   25360.21207711 -.00000020  00000+0  00000+0 0  9994", "line2": "2 40730  54.1189 274.2184 0111756  27.1685 333.4602  2.00564909 76528"}}, "geometry": {"type": "Point", "coordinates": [33.25091795160382, 50.39463794699482]}}, {"type": "Feature", "properties": {"norad_id": 40748, "name": "BEIDOU-3S M2S (C58)", "group": "gnss", "lat": -44.19394637362751, "lon": 170.7654681444785, "alt_km": 21505.640589990286, "timestamp": "2025-12-27T20:30:59.527438+00:00", "meta": {"OBJECT_NAME": "BEIDOU-3S M2S (C58)", "OBJECT_ID": "2015-037A", "EPOCH": "2025-12-26T23:05:37.447872", "MEAN_MOTION": 1.86229536, "ECCENTRICITY": 0.00118283, "INCLINATION": 55.026, "RA_OF_ASC_NODE": 307.9762, "ARG_OF_PERICENTER": 271.2374, "MEAN_ANOMALY": 88.6344, "EPHEMERIS_TYPE": 0, "CLASSIFICATION_TYPE": "U", "NORAD_CAT_ID": 40748, "ELEMENT_SET_NO": 999, "REV_AT_EPOCH": 7091, "BSTAR": 0, "MEAN_MOTION_DOT": -5.8e-07, "MEAN_MOTION_DDOT": 0}, "tle": {"line1": "1 40748U 15037A   25360.96223898 -.00000058  00000+0  00000+0 0  9994", "line2": "2 40748  55.0260 307.9762 0011828 271.2374  88.6344  1.86229536 70915"}}, "geometry": {"type": "Point", "coordinates": [170.7654681444785, -44.19394637362751]}}, {"type": "Feature", "properties": {"norad_id": 40749, "name": "BEIDOU-3S M1S (C57)", "group": "gnss", "lat": 54.781608545331956, "lon": 30.13957191830526, "alt_km": 21518.008660811593, "timestamp": "2025-12-27T20:30:59.527450+00:00", "meta": {"OBJECT_NAME": "BEIDOU-3S M1S (C57)", "OBJECT_ID": "2015-037B", "EPOCH": "2025-12-27T04:34:21.423072", "MEAN_MOTION": 1.86253811, "ECCENTRICITY": 0.0003729, "INCLINATION": 55.0221, "RA_OF_ASC_NODE": 307.9572, "ARG_OF_PERICENTER": 3.3585, "MEAN_ANOMALY": 356.651, "EPHEMERIS_TYPE": 0, "CLASSIFICATION_TYPE": "U", "NORAD_CAT_ID": 40749, "ELEMENT_SET_NO": 999, "REV_AT_EPOCH": 7092, "BSTAR": 0, "MEAN_MOTION_DOT": -5.9e-07, "MEAN_MOTION_DDOT": 0}, "tle": {"line1": "1 40749U 15037B   25361.19052573 -.00000059  00000+0  00000+0 0  9992", "line2": "2 40749  55.0221 307.9572 0003729   3.3585 356.6510  1.86253811 70928"}}, "geometry": {"type": "Point", "coordinates": [30.13957191830526, 54.781608545331956]}}, {"type": "Feature", "properties": {"norad_id": 40889, "name": "GSAT0205 (GALILEO 9)", "group": "gnss", "lat": -45.75166037794972, "lon": -179.6241627181415, "alt_km": 23231.851639692635, "timestamp": "2025-12-27T20:30:59.527463+00:00", "meta": {"OBJECT_NAME": "GSAT0205 (GALILEO 9)", "OBJECT_ID": "2015-045A", "EPOCH": "2025-12-23T06:16:38.782272", "MEAN_MOTION": 1.70473104, "ECCENTRICITY": 0.00062228, "INCLINATION": 55.0001, "RA_OF_ASC_NODE": 226.4673, "ARG_OF_PERICENTER": 42.5636, "MEAN_ANOMALY": 317.5856, "EPHEMERIS_TYPE": 0, "CLASSIFICATION_TYPE": "U", "NORAD_CAT_ID": 40889, "ELEMENT_SET_NO": 999, "REV_AT_EPOCH": 6401, "BSTAR": 0, "MEAN_MOTION_DOT": 7.3e-07, "MEAN_MOTION_DDOT": 0}, "tle": {"line1": "1 40889U 15045A   25357.26155998  .00000073  00000+0  00000+0 0  9999", "line2": "2 40889  55.0001 226.4673 0006222  42.5636 317.5856  1.70473104 64013"}}, "geometry": {"type": "Point", "coordinates": [-179.6241627181415, -45.75166037794972]}}, {"type": "Feature", "properties": {"norad_id": 40890, "name": "GSAT0206 (GALILEO 10)", "group": "gnss", "lat": 13.268493787755398, "lon": 36.840466765170994, "alt_km": 23227.213525708885, "timestamp": "2025-12-27T20:30:59.527474+00:00", "meta": {"OBJECT_NAME": "GSAT0206 (GALILEO 10)", "OBJECT_ID": "2015-045B", "EPOCH": "2025-12-27T00:02:25.632384", "MEAN_MOTION": 1.70473162, "ECCENTRICITY": 0.000413, "INCLINATION": 54.998, "RA_OF_ASC_NODE": 226.3589, "ARG_OF_PERICENTER": 41.9933, "MEAN_ANOMALY": 318.124, "EPHEMERIS_TYPE": 0, "CLASSIFICATION_TYPE": "U", "NORAD_CAT_ID": 40890, "ELEMENT_SET_NO": 999, "REV_AT_EPOCH": 6410, "BSTAR": 0, "MEAN_MOTION_DOT": 7e-07, "MEAN_MOTION_DDOT": 0}, "tle": {"line1": "1 40890U 15045B   25361.00168556  .00000070  00000+0  00000+0 0  9999", "line2": "2 40890  54.9980 226.3589 0004130  41.9933 318.1240  1.70473162 64101"}}, "geometry": {"type": "Point", "coordinates": [36.840466765170994, 13.268493787755398]}}]}